STARLINK-32760          
1 62568U 25006Q   26189.67269361  .00015086  00000+0  55646-3 0  9994
2 62568  42.9971 329.4693 0001933 268.4597  91.6033 15.27588647 83369
STARLINK-32715          
1 62569U 25006R   26189.87784811  .00013969  00000+0  51582-3 0  9992
2 62569  43.0004 328.4436 0001199 270.4557  89.6158 15.27604078 83391
STARLINK-32764          
1 62570U 25006S   26189.42786161  .00017193  00000+0  63263-3 0  9997
2 62570  43.0010 331.0809 0000372 204.6451 155.4383 15.27590245 83323
STARLINK-32773          
1 62571U 25006T   26189.45340357  .00018001  00000+0  66153-3 0  9994
2 62571  42.9995 330.4113 0001461 263.7185  96.3500 15.27605669 83337
STARLINK-32750          
1 62572U 25006U   26189.82773688  .00011597  00000+0  43012-3 0  9995
2 62572  43.0028 328.0576 0001268 278.5426  81.5282 15.27593392 83398
STARLINK-32771          
1 62573U 25006V   26189.38031378  .00011450  00000+0  42472-3 0  9997
2 62573  43.0029 330.7219 0001528 211.2184 148.8578 15.27599993 83329
STARLINK-32766          
1 62574U 25006W   26189.65984932  .00013895  00000+0  51352-3 0  9993
2 62574  43.0034 329.3854 0001585 260.3876  99.6797 15.27580218 83361
STARLINK-11547 [DTC]    
1 62587U 25008A   26190.14461362  .00136192  00000+0  10460-2 0  9992
2 62587  42.9992 114.2811 0002327 283.8649  76.1960 15.70874273 85216
STARLINK-11185 [DTC]    
1 62588U 25008B   26190.17633585  .00162068  00000+0  12344-2 0  9998
2 62588  43.0017 113.6423 0003752 258.6521 101.3925 15.70982527 85226
STARLINK-11513 [DTC]    
1 62589U 25008C   26190.19757833  .00210729  00000+0  16009-2 0  9994
2 62589  42.9990 113.8184 0002391 286.7447  73.3158 15.70891595 85228
STARLINK-11397 [DTC]    
1 62590U 25008D   26189.52459732  .00133989  00000+0  10294-2 0  9990
2 62590  42.9993 117.3455 0000232 281.2035  78.8806 15.70875898 86238
STARLINK-11420 [DTC]    
1 62591U 25008E   26190.20287651  .00142597  00000+0  10913-2 0  9990
2 62591  43.0072 113.8532 0005113 263.9940  96.0346 15.70926867 86404
STARLINK-11415 [DTC]    
1 62592U 25008F   26190.15522320  .00249289  00000+0  18819-2 0  9999
2 62592  43.0008 114.3649 0001795 273.6957  86.3705 15.70923816 86320
STARLINK-11413 [DTC]    
1 62593U 25008G   26190.14991803  .00159351  00000+0  12168-2 0  9996
2 62593  42.9987 114.3234 0004559 254.8020 105.2343 15.70926921 86282
STARLINK-11535 [DTC]    
1 62595U 25008J   26189.21197671  .00140978  00000+0  10802-2 0  9993
2 62595  43.0049 119.3023 0004631 261.9600  98.0742 15.70906997 86092
STARLINK-11521 [DTC]    
1 62597U 25008L   26190.18165391  .00124718  00000+0  95583-3 0  9991
2 62597  42.9991 113.6809 0001220 269.2828  90.7900 15.70967063 86390
STARLINK-11258 [DTC]    
1 62598U 25008M   26190.18696866  .00148020  00000+0  11297-2 0  9999
2 62598  43.0001 113.7238 0001298 350.0178  10.0663 15.70985759 86397
STARLINK-11529 [DTC]    
1 62599U 25008N   26189.93793774  .00116529  00000+0  89633-3 0  9996
2 62599  42.9966 115.3047 0000761 330.7847  29.2978 15.70909904 86360
STARLINK-32747          
1 62600U 25008P   26190.32838185  .00015713  00000+0  57889-3 0  9991
2 62600  43.0012 311.3010 0001497 174.2600 185.8269 15.27603752 84162
STARLINK-32767          
1 62601U 25008Q   26189.37698280  .00009085  00000+0  33892-3 0  9998
2 62601  43.0005 316.1962 0001777 256.0833 103.9821 15.27611535 84086
STARLINK-32769          
1 62602U 25008R   26189.64239154  .00007063  00000+0  26587-3 0  9997
2 62602  43.0007 314.7460 0001770 264.3310  95.7339 15.27587313 84124
STARLINK-32778          
1 62603U 25008S   26190.33995114  .00013967  00000+0  51579-3 0  9990
2 62603  43.0018 311.3929 0004559 287.7269  72.3085 15.27594476 84161
STARLINK-32710          
1 62604U 25008T   26189.62440788  .00014126  00000+0  52173-3 0  9992
2 62604  42.9982 314.6113 0001200 264.0333  96.0382 15.27588027 84068
STARLINK-32742          
1 62605U 25008U   26189.36673863  .00012616  00000+0  46704-3 0  9991
2 62605  43.0021 316.1208 0001484 286.4177  73.6512 15.27589378 84072
STARLINK-32783          
1 62606U 25008V   26189.84241596  .00022032  00000+0  80777-3 0  9990
2 62606  42.9966 313.6680 0000675 179.4077 180.6776 15.27578927 84097
STARLINK-32784          
1 62607U 25008W   26190.25002315  .00161548  00000+0  22264-2 0  9994
2 62607  42.9905 294.8031 0025482 358.4230  90.5326 15.55560944  5874
STARLINK-32806          
1 62735U 25014A   26190.03608795  .00010102  00000+0  37601-3 0  9994
2 62735  42.9981 189.2741 0001189 276.1717  83.8999 15.27589036 81810
STARLINK-32329          
1 62736U 25014B   26190.01682943  .00009587  00000+0  35732-3 0  9998
2 62736  42.9976 189.1202 0001656 286.9437  73.1233 15.27592911 81812
STARLINK-32774          
1 62737U 25014C   26190.07015683  .00011110  00000+0  41245-3 0  9997
2 62737  42.9998 192.1284 0001507 267.5679  92.5000 15.27596404 81783
STARLINK-32802          
1 62738U 25014D   26190.25781339  .00010806  00000+0  40143-3 0  9993
2 62738  43.0011 187.4896 0001782 272.4662  87.5986 15.27597241 81855
