OBJECT_NAME,OBJECT_ID,EPOCH,MEAN_MOTION,ECCENTRICITY,INCLINATION,RA_OF_ASC_NODE,ARG_OF_PERICENTER,MEAN_ANOMALY,EPHEMERIS_TYPE,CLASSIFICATION_TYPE,NORAD_CAT_ID,ELEMENT_SET_NO,REV_AT_EPOCH,BSTAR,MEAN_MOTION_DOT,MEAN_MOTION_DDOT
STARLINK-32760,2025-006Q,2026-07-08T16:08:40.727904,15.27588647,.00019333,42.9971,329.4693,268.4597,91.6033,0,U,62568,999,8336,.55646338E-3,.15086E-3,0
STARLINK-32715,2025-006R,2026-07-08T21:04:06.076704,15.27604078,.00011994,43.0004,328.4436,270.4557,89.6158,0,U,62569,999,8339,.51582105E-3,.13969E-3,0
STARLINK-32764,2025-006S,2026-07-08T10:16:07.243104,15.27590245,.00003722,43.0010,331.0809,204.6451,155.4383,0,U,62570,999,8332,.63262845E-3,.17193E-3,0
STARLINK-32773,2025-006T,2026-07-08T10:52:54.068448,15.27605669,.00014618,42.9995,330.4113,263.7185,96.3500,0,U,62571,999,8333,.66153372E-3,.18001E-3,0
STARLINK-32750,2025-006U,2026-07-08T19:51:56.466432,15.27593392,.0001268,43.0028,328.0576,278.5426,81.5282,0,U,62572,999,8339,.43011923E-3,.11597E-3,0
STARLINK-32771,2025-006V,2026-07-08T09:07:39.110592,15.27599993,.00015288,43.0029,330.7219,211.2184,148.8578,0,U,62573,999,8332,.42471883E-3,.1145E-3,0
STARLINK-32766,2025-006W,2026-07-08T15:50:10.981248,15.27580218,.00015852,43.0034,329.3854,260.3876,99.6797,0,U,62574,999,8336,.51351805E-3,.13895E-3,0
STARLINK-11547 [DTC],2025-008A,2026-07-09T03:28:14.616768,15.70874273,.00023274,42.9992,114.2811,283.8649,76.1960,0,U,62587,999,8521,.10460059E-2,.136192E-2,0
STARLINK-11185 [DTC],2025-008B,2026-07-09T04:13:55.417440,15.70982527,.00037525,43.0017,113.6423,258.6521,101.3925,0,U,62588,999,8522,.12343797E-2,.162068E-2,0
STARLINK-11513 [DTC],2025-008C,2026-07-09T04:44:30.767712,15.70891595,.00023918,42.9990,113.8184,286.7447,73.3158,0,U,62589,999,8522,.16009325E-2,.210729E-2,0
STARLINK-11397 [DTC],2025-008D,2026-07-08T12:35:25.208448,15.70875898,.00002322,42.9993,117.3455,281.2035,78.8806,0,U,62590,999,8623,.10293993E-2,.133989E-2,0
STARLINK-11420 [DTC],2025-008E,2026-07-09T04:52:08.530464,15.70926867,.00051133,43.0072,113.8532,263.9940,96.0346,0,U,62591,999,8640,.10912796E-2,.142597E-2,0
STARLINK-11415 [DTC],2025-008F,2026-07-09T03:43:31.284480,15.70923816,.00017954,43.0008,114.3649,273.6957,86.3705,0,U,62592,999,8632,.188194E-2,.249289E-2,0
STARLINK-11413 [DTC],2025-008G,2026-07-09T03:35:52.917792,15.70926921,.00045594,42.9987,114.3234,254.8020,105.2343,0,U,62593,999,8628,.12167875E-2,.159351E-2,0
STARLINK-11535 [DTC],2025-008J,2026-07-08T05:05:14.787744,15.70906997,.00046318,43.0049,119.3023,261.9600,98.0742,0,U,62595,999,8609,.10801569E-2,.140978E-2,0
STARLINK-11521 [DTC],2025-008L,2026-07-09T04:21:34.897824,15.70967063,.000122,42.9991,113.6809,269.2828,90.7900,0,U,62597,999,8639,.95582756E-3,.124718E-2,0
STARLINK-11258 [DTC],2025-008M,2026-07-09T04:29:14.092224,15.70985759,.00012981,43.0001,113.7238,350.0178,10.0663,0,U,62598,999,8639,.11296996E-2,.14802E-2,0
STARLINK-11529 [DTC],2025-008N,2026-07-08T22:30:37.820736,15.70909904,.00007613,42.9966,115.3047,330.7847,29.2978,0,U,62599,999,8636,.89632829E-3,.116529E-2,0
STARLINK-32747,2025-008P,2026-07-09T07:52:52.191840,15.27603752,.00014971,43.0012,311.3010,174.2600,185.8269,0,U,62600,999,8416,.57888541E-3,.15713E-3,0
STARLINK-32767,2025-008Q,2026-07-08T09:02:51.313920,15.27611535,.00017778,43.0005,316.1962,256.0833,103.9821,0,U,62601,999,8408,.3389202E-3,.9085E-4,0
STARLINK-32769,2025-008R,2026-07-08T15:25:02.629056,15.27587313,.00017707,43.0007,314.7460,264.3310,95.7339,0,U,62602,999,8412,.26587052E-3,.7063E-4,0
STARLINK-32778,2025-008S,2026-07-09T08:09:31.778496,15.27594476,.00045593,43.0018,311.3929,287.7269,72.3085,0,U,62603,999,8416,.51578525E-3,.13967E-3,0
STARLINK-32710,2025-008T,2026-07-08T14:59:08.840832,15.27588027,.00012002,42.9982,314.6113,264.0333,96.0382,0,U,62604,999,8406,.52173406E-3,.14126E-3,0
STARLINK-32742,2025-008U,2026-07-08T08:48:06.217632,15.27589378,.0001484,43.0021,316.1208,286.4177,73.6512,0,U,62605,999,8407,.46704449E-3,.12616E-3,0
STARLINK-32783,2025-008V,2026-07-08T20:13:04.738944,15.27578927,.00006755,42.9966,313.6680,179.4077,180.6776,0,U,62606,999,8409,.80776873E-3,.22032E-3,0
STARLINK-32784,2025-008W,2026-07-09T06:00:02.000160,15.55560944,.00254829,42.9905,294.8031,358.4230,90.5326,0,U,62607,999,587,.22263985E-2,.161548E-2,0
STARLINK-32806,2025-014A,2026-07-09T00:51:57.998880,15.27589036,.00011897,42.9981,189.2741,276.1717,83.8999,0,U,62735,999,8181,.37601166E-3,.10102E-3,0
STARLINK-32329,2025-014B,2026-07-09T00:24:14.062752,15.27592911,.00016565,42.9976,189.1202,286.9437,73.1233,0,U,62736,999,8181,.35732412E-3,.9587E-4,0
STARLINK-32774,2025-014C,2026-07-09T01:41:01.550112,15.27596404,.00015078,42.9998,192.1284,267.5679,92.5000,0,U,62737,999,8178,.41244846E-3,.1111E-3,0
STARLINK-32802,2025-014D,2026-07-09T06:11:15.076896,15.27597241,.00017829,43.0011,187.4896,272.4662,87.5986,0,U,62738,999,8185,.40143456E-3,.10806E-3,0
